[{"OBJECT_NAME":"FLORIPASAT-1","OBJECT_ID":"2019-093G","EPOCH":"2026-03-09T23:35:55.317696","MEAN_MOTION":15.02721611,"ECCENTRICITY":0.00131238,"INCLINATION":97.7908,"RA_OF_ASC_NODE":162.596,"ARG_OF_PERICENTER":52.6692,"MEAN_ANOMALY":307.5727,"EPHEMERIS_TYPE":0,"CLASSIFICATION_TYPE":"U","NORAD_CAT_ID":44885,"ELEMENT_SET_NO":999,"REV_AT_EPOCH":33774,"BSTAR":0.00066057159,"MEAN_MOTION_DOT":8.782e-5,"MEAN_MOTION_DDOT":0},{"OBJECT_NAME":"STARLINK-4314","OBJECT_ID":"2022-077P","EPOCH":"2026-03-09T22:04:53.908896","MEAN_MOTION":15.05644833,"ECCENTRICITY":0.00017052,"INCLINATION":97.6015,"RA_OF_ASC_NODE":251.4481,"ARG_OF_PERICENTER":83.7447,"MEAN_ANOMALY":276.3974,"EPHEMERIS_TYPE":0,"CLASSIFICATION_TYPE":"U","NORAD_CAT_ID":53056,"ELEMENT_SET_NO":999,"REV_AT_EPOCH":20101,"BSTAR":8.5638875e-5,"MEAN_MOTION_DOT":1.175e-5,"MEAN_MOTION_DDOT":0}]
